ONEWEB-0228             
1 48780U 21045P   24160.94043221 -.00000104  00000+0 -31027-3 0  9999
2 48780  87.9043  46.0904 0001984  82.6480 277.4876 13.15547978147264
